OBJECT_NAME,OBJECT_ID,EPOCH,MEAN_MOTION,ECCENTRICITY,INCLINATION,RA_OF_ASC_NODE,ARG_OF_PERICENTER,MEAN_ANOMALY,EPHEMERIS_TYPE,CLASSIFICATION_TYPE,NORAD_CAT_ID,ELEMENT_SET_NO,REV_AT_EPOCH,BSTAR,MEAN_MOTION_DOT,MEAN_MOTION_DDOT
TERRA,1999-068A,2019-04-30T18:43:22.761984,14.57111066,.0001018,98.2058,196.0364,100.5709,259.5586,0,U,25994,999,3007,.27612E-4,.79E-6,0
TERRA,1999-068A,2019-05-01T04:36:41.131008,14.57111257,.0001114,98.2060,196.4426,102.1149,258.0192,0,U,25994,999,3013,.35795E-4,.116E-5,0
TERRA,1999-068A,2019-05-01T11:12:13.285152,14.57111783,.0001106,98.2064,196.7136,101.4460,258.6870,0,U,25994,999,3017,.55806E-4,.206E-5,0
TERRA,1999-068A,2019-05-01T19:26:38.510016,14.57111314,.0001136,98.2065,197.0520,104.1847,255.9455,0,U,25994,999,3022,.31825E-4,.98E-6,0
TERRA,1999-068A,2019-05-02T03:41:03.836832,14.57111070,.0001241,98.2065,197.3903,109.9019,250.2335,0,U,25994,999,3027,.16527E-4,.29E-6,0
TERRA,1999-068A,2019-05-02T08:37:42.953952,14.57111158,.000126,98.2066,197.5933,110.8741,249.2599,0,U,25994,999,3030,.18931E-4,.4E-6,0
TERRA,1999-068A,2019-05-02T11:55:29.046144,14.57111073,.0001276,98.2067,197.7286,111.2419,248.8914,0,U,25994,999,3032,.14151E-4,.19E-6,0
TERRA,1999-068A,2019-05-02T15:13:15.152160,14.57111050,.0001301,98.2068,197.8640,112.4032,247.7311,0,U,25994,999,3034,.89967E-5,-.5E-7,0
TERRA,1999-068A,2019-05-02T18:31:01.244352,14.57110782,.0001469,98.2069,197.9995,116.1575,243.9768,0,U,25994,999,3036,.10634E-5,-.4E-6,0
TERRA,1999-068A,2019-05-03T04:24:19.581408,14.57110804,.0001482,98.2068,198.4062,117.7658,242.3710,0,U,25994,999,3042,-.2668E-5,-.57E-6,0
TERRA,1999-068A,2019-05-03T10:59:51.761472,14.57110955,.0001537,98.2071,198.6771,116.9085,243.2280,0,U,25994,999,3046,.16629E-5,-.38E-6,0
TERRA,1999-068A,2019-05-03T19:14:16.991520,14.57110766,.0001716,98.2073,199.0159,119.4488,240.6878,0,U,25994,999,3051,-.72482E-5,-.78E-6,0
TERRA,1999-068A,2019-05-04T03:28:42.248352,14.57111700,.0001684,98.2071,199.3542,119.1534,240.9857,0,U,25994,999,3056,.40787E-4,.138E-5,0
TERRA,1999-068A,2019-05-04T11:43:07.449024,14.57111792,.0001591,98.2071,199.6919,115.5644,244.5709,0,U,25994,999,3061,.38688E-4,.129E-5,0
TERRA,1999-068A,2019-05-04T18:18:39.651552,14.57111511,.0001516,98.2070,199.9627,113.2206,246.9128,0,U,25994,999,3065,.24913E-4,.67E-6,0
TERRA,1999-068A,2019-05-05T04:11:58.020576,14.57111651,.0001534,98.2070,200.3690,115.0568,245.0822,0,U,25994,999,3071,.26969E-4,.76E-6,0
TERRA,1999-068A,2019-05-05T12:26:23.203968,14.57111903,.0001515,98.2071,200.7074,113.5203,246.6158,0,U,25994,999,3076,.32614E-4,.102E-5,0
TERRA,1999-068A,2019-05-05T19:01:55.385760,14.57111721,.0001469,98.2071,200.9781,111.9567,248.1775,0,U,25994,999,3080,.21696E-4,.52E-6,0
TERRA,1999-068A,2019-05-06T04:55:13.707264,14.57111915,.0001501,98.2070,201.3841,113.3294,246.8077,0,U,25994,999,3086,.27886E-4,.8E-6,0
TERRA,1999-068A,2019-05-06T11:30:45.865728,14.57111966,.0001485,98.2069,201.6544,112.0444,248.0911,0,U,25994,999,3090,.22537E-4,.56E-6,0
TERRA,1999-068A,2019-05-06T19:45:11.096640,14.57111613,.0001406,98.2068,201.9926,109.2189,250.9135,0,U,25994,999,3095,.78796E-5,-.1E-6,0
TERRA,1999-068A,2019-05-07T03:59:36.386304,14.57112112,.0001366,98.2067,202.3306,109.7420,250.3954,0,U,25994,999,3100,.24331E-4,.64E-6,0
TERRA,1999-068A,2019-05-07T12:14:01.571424,14.57112300,.0001369,98.2065,202.6690,109.4293,250.7060,0,U,25994,999,3105,.28049E-4,.81E-6,0
TERRA,1999-068A,2019-05-07T18:49:33.735936,14.57112009,.0001307,98.2063,202.9392,107.1838,252.9481,0,U,25994,999,3109,.14526E-4,.2E-6,0
TERRA,1999-068A,2019-05-08T04:42:52.050528,14.57112514,.000131,98.2062,203.3453,108.5430,251.5929,0,U,25994,999,3115,.34632E-4,.111E-5,0
TERRA,1999-068A,2019-05-08T11:18:24.177024,14.57112914,.0001322,98.2061,203.6156,109.7488,250.3858,0,U,25994,999,3119,.45388E-4,.159E-5,0
TERRA,1999-068A,2019-05-08T19:32:49.403616,14.57112763,.0001217,98.2058,203.9534,106.3048,253.8280,0,U,25994,999,3124,.34222E-4,.109E-5,0
TERRA,1999-068A,2019-05-09T03:47:14.644032,14.57112907,.0001234,98.2058,204.2916,106.3072,253.8273,0,U,25994,999,3129,.35344E-4,.114E-5,0
TERRA,1999-068A,2019-05-09T08:43:53.757696,14.57112868,.0001241,98.2058,204.4944,106.1238,254.0094,0,U,25994,999,3132,.30633E-4,.93E-6,0
TERRA,1999-068A,2019-05-09T15:19:25.936896,14.57112868,.0001226,98.2056,204.7650,106.1531,253.9806,0,U,25994,999,3136,.23518E-4,.61E-6,0
TERRA,1999-068A,2019-05-09T18:37:12.016992,14.57112321,.0001204,98.2054,204.9000,105.9577,254.1725,0,U,25994,999,3138,.50419E-5,-.23E-6,0
