TERRA                   
1 25994U 99068A   19120.78012456  .00000079  00000+0  27612-4 0  9994
2 25994  98.2058 196.0364 0001018 100.5709 259.5586 14.57111066 30076
TERRA                   
1 25994U 99068A   19121.19214272  .00000116  00000+0  35795-4 0  9993
2 25994  98.2060 196.4426 0001114 102.1149 258.0192 14.57111257 30131
TERRA                   
1 25994U 99068A   19121.46682043  .00000206  00000+0  55806-4 0  9993
2 25994  98.2064 196.7136 0001106 101.4460 258.6870 14.57111783 30172
TERRA                   
1 25994U 99068A   19121.81016794  .00000098  00000+0  31825-4 0  9990
2 25994  98.2065 197.0520 0001136 104.1847 255.9455 14.57111314 30221
TERRA                   
1 25994U 99068A   19122.15351663  .00000029  00000+0  16527-4 0  9991
2 25994  98.2065 197.3903 0001241 109.9019 250.2335 14.57111070 30279
TERRA                   
1 25994U 99068A   19122.35952493  .00000040  00000+0  18931-4 0  9995
2 25994  98.2066 197.5933 0001260 110.8741 249.2599 14.57111158 30300
TERRA                   
1 25994U 99068A   19122.49686396  .00000019  00000+0  14151-4 0  9992
2 25994  98.2067 197.7286 0001276 111.2419 248.8914 14.57111073 30322
TERRA                   
1 25994U 99068A   19122.63420315 -.00000005  00000+0  89967-5 0  9999
2 25994  98.2068 197.8640 0001301 112.4032 247.7311 14.57111050 30347
TERRA                   
1 25994U 99068A   19122.77154218 -.00000040  00000+0  10634-5 0  9994
2 25994  98.2069 197.9995 0001469 116.1575 243.9768 14.57110782 30367
TERRA                   
1 25994U 99068A   19123.18355997 -.00000057  00000+0 -26680-5 0  9994
2 25994  98.2068 198.4062 0001482 117.7658 242.3710 14.57110804 30423
TERRA                   
1 25994U 99068A   19123.45823798 -.00000038  00000+0  16629-5 0  9993
2 25994  98.2071 198.6771 0001537 116.9085 243.2280 14.57110955 30465
TERRA                   
1 25994U 99068A   19123.80158555 -.00000078  00000+0 -72482-5 0  9998
2 25994  98.2073 199.0159 0001716 119.4488 240.6878 14.57110766 30516
TERRA                   
1 25994U 99068A   19124.14493343  .00000138  00000+0  40787-4 0  9990
2 25994  98.2071 199.3542 0001684 119.1534 240.9857 14.57111700 30560
TERRA                   
1 25994U 99068A   19124.48828066  .00000129  00000+0  38688-4 0  9998
2 25994  98.2071 199.6919 0001591 115.5644 244.5709 14.57111792 30613
TERRA                   
1 25994U 99068A   19124.76295893  .00000067  00000+0  24913-4 0  9992
2 25994  98.2070 199.9627 0001516 113.2206 246.9128 14.57111511 30651
TERRA                   
1 25994U 99068A   19125.17497709  .00000076  00000+0  26969-4 0  9991
2 25994  98.2070 200.3690 0001534 115.0568 245.0822 14.57111651 30712
TERRA                   
1 25994U 99068A   19125.51832412  .00000102  00000+0  32614-4 0  9997
2 25994  98.2071 200.7074 0001515 113.5203 246.6158 14.57111903 30765
TERRA                   
1 25994U 99068A   19125.79300215  .00000052  00000+0  21696-4 0  9990
2 25994  98.2071 200.9781 0001469 111.9567 248.1775 14.57111721 30800
TERRA                   
1 25994U 99068A   19126.20501976  .00000080  00000+0  27886-4 0  9992
2 25994  98.2070 201.3841 0001501 113.3294 246.8077 14.57111915 30862
TERRA                   
1 25994U 99068A   19126.47969752  .00000056  00000+0  22537-4 0  9992
2 25994  98.2069 201.6544 0001485 112.0444 248.0911 14.57111966 30909
TERRA                   
1 25994U 99068A   19126.82304510 -.00000010  00000+0  78796-5 0  9996
2 25994  98.2068 201.9926 0001406 109.2189 250.9135 14.57111613 30956
TERRA                   
1 25994U 99068A   19127.16639336  .00000064  00000+0  24331-4 0  9994
2 25994  98.2067 202.3306 0001366 109.7420 250.3954 14.57112112 31005
TERRA                   
1 25994U 99068A   19127.50974041  .00000081  00000+0  28049-4 0  9996
2 25994  98.2065 202.6690 0001369 109.4293 250.7060 14.57112300 31056
TERRA                   
1 25994U 99068A   19127.78441824  .00000020  00000+0  14526-4 0  9992
2 25994  98.2063 202.9392 0001307 107.1838 252.9481 14.57112009 31099
TERRA                   
1 25994U 99068A   19128.19643577  .00000111  00000+0  34632-4 0  9998
2 25994  98.2062 203.3453 0001310 108.5430 251.5929 14.57112514 31158
TERRA                   
1 25994U 99068A   19128.47111316  .00000159  00000+0  45388-4 0  9992
2 25994  98.2061 203.6156 0001322 109.7488 250.3858 14.57112914 31195
TERRA                   
1 25994U 99068A   19128.81446069  .00000109  00000+0  34222-4 0  9996
2 25994  98.2058 203.9534 0001217 106.3048 253.8280 14.57112763 31247
TERRA                   
1 25994U 99068A   19129.15780838  .00000114  00000+0  35344-4 0  9991
2 25994  98.2058 204.2916 0001234 106.3072 253.8273 14.57112907 31298
TERRA                   
1 25994U 99068A   19129.36381664  .00000093  00000+0  30633-4 0  9990
2 25994  98.2058 204.4944 0001241 106.1238 254.0094 14.57112868 31325
TERRA                   
1 25994U 99068A   19129.63849464  .00000061  00000+0  23518-4 0  9996
2 25994  98.2056 204.7650 0001226 106.1531 253.9806 14.57112868 31362
TERRA                   
1 25994U 99068A   19129.77583353 -.00000023  00000+0  50419-5 0  9993
2 25994  98.2054 204.9000 0001204 105.9577 254.1725 14.57112321 31383
